{
  "type": "FeatureCollection",
  "features": [
    {
      "type": "Feature",
      "properties": {
        "norad_id": 37238,
        "name": "INTELSAT 17 (IS-17)",
        "group": "intelsat",
        "lat": 0.03499855628437304,
        "lon": 45.77230394566844,
        "alt_km": 35795.675071367186,
        "timestamp": "2025-12-03T17:47:50.379982+00:00",
        "meta_object_name": "INTELSAT 17 (IS-17)",
        "meta_object_id": "2010-065B",
        "meta_epoch": "2025-12-03T10:38:46.092192",
        "meta_mean_motion": 1.00267665,
        "meta_eccentricity": 0.0002381,
        "meta_inclination": 0.016,
        "meta_ra_of_asc_node": 283.1971,
        "meta_arg_of_pericenter": 335.7412,
        "meta_mean_anomaly": 39.2864,
        "meta_ephemeris_type": 0,
        "meta_classification_type": "U",
        "meta_norad_cat_id": 37238,
        "meta_element_set_no": 999,
        "meta_rev_at_epoch": 5128,
        "meta_bstar": 0,
        "meta_mean_motion_dot": 1.7e-07,
        "meta_mean_motion_ddot": 0,
        "tle_line1": "1 37238U 10065B   25337.44358903  .00000017  00000+0  00000+0 0  9997",
        "tle_line2": "2 37238   0.0160 283.1971 0002381 335.7412  39.2864  1.00267665 51283"
      },
      "geometry": {
        "type": "Point",
        "coordinates": [
          45.77230394566844,
          0.03499855628437304
        ]
      }
    },
    {
      "type": "Feature",
      "properties": {
        "norad_id": 37392,
        "name": "INTELSAT 28 (IS-28)",
        "group": "intelsat",
        "lat": -0.8910406769021165,
        "lon": -51.911108480759275,
        "alt_km": 35775.38907799239,
        "timestamp": "2025-12-03T17:47:50.379994+00:00",
        "meta_object_name": "INTELSAT 28 (IS-28)",
        "meta_object_id": "2011-016A",
        "meta_epoch": "2025-12-03T08:28:06.107808",
        "meta_mean_motion": 1.0027129,
        "meta_eccentricity": 0.0004078,
        "meta_inclination": 1.2983,
        "meta_ra_of_asc_node": 85.1678,
        "meta_arg_of_pericenter": 172.439,
        "meta_mean_anomaly": 270.1581,
        "meta_ephemeris_type": 0,
        "meta_classification_type": "U",
        "meta_norad_cat_id": 37392,
        "meta_element_set_no": 999,
        "meta_rev_at_epoch": 5132,
        "meta_bstar": 0,
        "meta_mean_motion_dot": -2.06e-06,
        "meta_mean_motion_ddot": 0,
        "tle_line1": "1 37392U 11016A   25337.35284847 -.00000206  00000+0  00000+0 0  9991",
        "tle_line2": "2 37392   1.2983  85.1678 0004078 172.4390 270.1581  1.00271290 51326"
      },
      "geometry": {
        "type": "Point",
        "coordinates": [
          -51.911108480759275,
          -0.8910406769021165
        ]
      }
    },
    {
      "type": "Feature",
      "properties": {
        "norad_id": 37834,
        "name": "INTELSAT 18 (IS-18)",
        "group": "intelsat",
        "lat": -0.002375329102094604,
        "lon": 159.7362480910866,
        "alt_km": 35786.7628083571,
        "timestamp": "2025-12-03T17:47:50.380006+00:00",
        "meta_object_name": "INTELSAT 18 (IS-18)",
        "meta_object_id": "2011-056A",
        "meta_epoch": "2025-12-02T14:38:27.603744",
        "meta_mean_motion": 1.00271068,
        "meta_eccentricity": 0.00021353,
        "meta_inclination": 0.0103,
        "meta_ra_of_asc_node": 349.7893,
        "meta_arg_of_pericenter": 263.574,
        "meta_mean_anomaly": 217.9638,
        "meta_ephemeris_type": 0,
        "meta_classification_type": "U",
        "meta_norad_cat_id": 37834,
        "meta_element_set_no": 999,
        "meta_rev_at_epoch": 5184,
        "meta_bstar": 0,
        "meta_mean_motion_dot": 7.3e-07,
        "meta_mean_motion_ddot": 0,
        "tle_line1": "1 37834U 11056A   25336.61004171  .00000073  00000+0  00000+0 0  9995",
        "tle_line2": "2 37834   0.0103 349.7893 0002135 263.5740 217.9638  1.00271068 51841"
      },
      "geometry": {
        "type": "Point",
        "coordinates": [
          159.7362480910866,
          -0.002375329102094604
        ]
      }
    },
    {
      "type": "Feature",
      "properties": {
        "norad_id": 38098,
        "name": "INTELSAT 22 (IS-22)",
        "group": "intelsat",
        "lat": 0.023862861019626484,
        "lon": 51.87584846485189,
        "alt_km": 35792.70517326254,
        "timestamp": "2025-12-03T17:47:50.380018+00:00",
        "meta_object_name": "INTELSAT 22 (IS-22)",
        "meta_object_id": "2012-011A",
        "meta_epoch": "2025-12-03T10:40:30.923904",
        "meta_mean_motion": 1.00270985,
        "meta_eccentricity": 0.0001695,
        "meta_inclination": 0.0039,
        "meta_ra_of_asc_node": 355.7027,
        "meta_arg_of_pericenter": 263.1859,
        "meta_mean_anomaly": 45.8802,
        "meta_ephemeris_type": 0,
        "meta_classification_type": "U",
        "meta_norad_cat_id": 38098,
        "meta_element_set_no": 999,
        "meta_rev_at_epoch": 522,
        "meta_bstar": 0,
        "meta_mean_motion_dot": -4e-07,
        "meta_mean_motion_ddot": 0,
        "tle_line1": "1 38098U 12011A   25337.44480236 -.00000040  00000+0  00000+0 0  9997",
        "tle_line2": "2 38098   0.0039 355.7027 0001695 263.1859  45.8802  1.00270985  5224"
      },
      "geometry": {
        "type": "Point",
        "coordinates": [
          51.87584846485189,
          0.023862861019626484
        ]
      }
    },
    {
      "type": "Feature",
      "properties": {
        "norad_id": 38356,
        "name": "INTELSAT 19 (IS-19)",
        "group": "intelsat",
        "lat": -0.005483041110548396,
        "lon": 145.7448356068353,
        "alt_km": 35791.6056036092,
        "timestamp": "2025-12-03T17:47:50.380030+00:00",
        "meta_object_name": "INTELSAT 19 (IS-19)",
        "meta_object_id": "2012-030A",
        "meta_epoch": "2025-12-03T04:16:18.861312",
        "meta_mean_motion": 1.00271683,
        "meta_eccentricity": 0.000347,
        "meta_inclination": 0.0099,
        "meta_ra_of_asc_node": 315.9316,
        "meta_arg_of_pericenter": 301.8821,
        "meta_mean_anomaly": 44.556,
        "meta_ephemeris_type": 0,
        "meta_classification_type": "U",
        "meta_norad_cat_id": 38356,
        "meta_element_set_no": 999,
        "meta_rev_at_epoch": 4848,
        "meta_bstar": 0,
        "meta_mean_motion_dot": -3.7e-07,
        "meta_mean_motion_ddot": 0,
        "tle_line1": "1 38356U 12030A   25337.17799608 -.00000037  00000+0  00000+0 0  9997",
        "tle_line2": "2 38356   0.0099 315.9316 0003470 301.8821  44.5560  1.00271683 48486"
      },
      "geometry": {
        "type": "Point",
        "coordinates": [
          145.7448356068353,
          -0.005483041110548396
        ]
      }
    },
    {
      "type": "Feature",
      "properties": {
        "norad_id": 38740,
        "name": "INTELSAT 20 (IS-20)",
        "group": "intelsat",
        "lat": 0.035994441126155734,
        "lon": 48.234893952886274,
        "alt_km": 35796.00082740631,
        "timestamp": "2025-12-03T17:47:50.380043+00:00",
        "meta_object_name": "INTELSAT 20 (IS-20)",
        "meta_object_id": "2012-043A",
        "meta_epoch": "2025-12-02T22:40:15.332160",
        "meta_mean_motion": 1.00274497,
        "meta_eccentricity": 0.0003028,
        "meta_inclination": 0.0125,
        "meta_ra_of_asc_node": 336.6425,
        "meta_arg_of_pericenter": 218.4136,
        "meta_mean_anomaly": 285.5325,
        "meta_ephemeris_type": 0,
        "meta_classification_type": "U",
        "meta_norad_cat_id": 38740,
        "meta_element_set_no": 999,
        "meta_rev_at_epoch": 4878,
        "meta_bstar": 0,
        "meta_mean_motion_dot": 0,
        "meta_mean_motion_ddot": 0,
        "tle_line1": "1 38740U 12043A   25336.94462190  .00000000  00000+0  00000+0 0  9994",
        "tle_line2": "2 38740   0.0125 336.6425 0003028 218.4136 285.5325  1.00274497 48780"
      },
      "geometry": {
        "type": "Point",
        "coordinates": [
          48.234893952886274,
          0.035994441126155734
        ]
      }
    },
    {
      "type": "Feature",
      "properties": {
        "norad_id": 38749,
        "name": "INTELSAT 21 (IS-21)",
        "group": "intelsat",
        "lat": -0.027057608955126912,
        "lon": -78.22253342378798,
        "alt_km": 35778.731836277184,
        "timestamp": "2025-12-03T17:47:50.380055+00:00",
        "meta_object_name": "INTELSAT 21 (IS-21)",
        "meta_object_id": "2012-045A",
        "meta_epoch": "2025-12-03T08:20:36.826080",
        "meta_mean_motion": 1.00269041,
        "meta_eccentricity": 0.0002452,
        "meta_inclination": 0.0163,
        "meta_ra_of_asc_node": 324.7378,
        "meta_arg_of_pericenter": 278.7741,
        "meta_mean_anomaly": 256.0819,
        "meta_ephemeris_type": 0,
        "meta_classification_type": "U",
        "meta_norad_cat_id": 38749,
        "meta_element_set_no": 999,
        "meta_rev_at_epoch": 4856,
        "meta_bstar": 0,
        "meta_mean_motion_dot": -2.66e-06,
        "meta_mean_motion_ddot": 0,
        "tle_line1": "1 38749U 12045A   25337.34764845 -.00000266  00000+0  00000+0 0  9997",
        "tle_line2": "2 38749   0.0163 324.7378 0002452 278.7741 256.0819  1.00269041 48563"
      },
      "geometry": {
        "type": "Point",
        "coordinates": [
          -78.22253342378798,
          -0.027057608955126912
        ]
      }
    }
  ]
}